$$SOE
2461302.500000000, A.D. 2026-Sep-19 00:00:00.0000, -1.700455539077132E+08, 4.885719183223231E+08, -6.960703731484413E+05,
2461309.500000000, A.D. 2026-Sep-26 00:00:00.0000, -1.784075566182330E+08, 4.848210109046444E+08, -2.661724471550882E+05,
2461316.500000000, A.D. 2026-Oct-03 00:00:00.0000, -1.867070506125257E+08, 4.808994662987435E+08, 1.638283729362786E+05,
2461323.500000000, A.D. 2026-Oct-10 00:00:00.0000, -1.949408379920240E+08, 4.768079418310862E+08, 5.937803874272704E+05,
2461330.500000000, A.D. 2026-Oct-17 00:00:00.0000, -2.031057093489041E+08, 4.725471437694640E+08, 1.023530557528019E+06,
2461337.500000000, A.D. 2026-Oct-24 00:00:00.0000, -2.111984439965131E+08, 4.681178282652632E+08, 1.452924494639486E+06,
2461344.500000000, A.D. 2026-Oct-31 00:00:00.0000, -2.192158101428059E+08, 4.635208021632535E+08, 1.881806428531647E+06,
2461351.500000000, A.D. 2026-Nov-07 00:00:00.0000, -2.271545646696990E+08, 4.587569237527484E+08, 2.310019129635423E+06,
2461358.500000000, A.D. 2026-Nov-14 00:00:00.0000, -2.350114523198299E+08, 4.538271043474795E+08, 2.737403839837283E+06,
2461365.500000000, A.D. 2026-Nov-21 00:00:00.0000, -2.427832061050304E+08, 4.487323113768439E+08, 3.163800433917582E+06,
2461372.500000000, A.D. 2026-Nov-28 00:00:00.0000, -2.504665499358721E+08, 4.434735699810190E+08, 3.589047657635182E+06,
2461379.500000000, A.D. 2026-Dec-05 00:00:00.0000, -2.580581998537940E+08, 4.380519624518489E+08, 4.012983057361633E+06,
2461386.500000000, A.D. 2026-Dec-12 00:00:00.0000, -2.655548637038696E+08, 4.324686286297442E+08, 4.435442840811223E+06,
2461393.500000000, A.D. 2026-Dec-19 00:00:00.0000, -2.729532411376072E+08, 4.267247672636940E+08, 4.856261842736870E+06,
2461400.500000000, A.D. 2026-Dec-26 00:00:00.0000, -2.802500240891882E+08, 4.208216374653921E+08, 5.275273538037091E+06,
2461407.500000000, A.D. 2027-Jan-02 00:00:00.0000, -2.874418974511185E+08, 4.147605600643196E+08, 5.692310061743408E+06,
2461414.500000000, A.D. 2027-Jan-09 00:00:00.0000, -2.945255398355361E+08, 4.085429188816952E+08, 6.107202227134585E+06,
2461421.500000000, A.D. 2027-Jan-16 00:00:00.0000, -3.014976243901719E+08, 4.021701619305137E+08, 6.519779539705396E+06,
2461428.500000000, A.D. 2027-Jan-23 00:00:00.0000, -3.083548196277488E+08, 3.956438025011808E+08, 6.929870199680090E+06,
2461435.500000000, A.D. 2027-Jan-30 00:00:00.0000, -3.150937900856238E+08, 3.889654200843239E+08, 7.337301072010219E+06,
2461442.500000000, A.D. 2027-Feb-06 00:00:00.0000, -3.217111963951285E+08, 3.821366614697275E+08, 7.741897612687558E+06,
2461449.500000000, A.D. 2027-Feb-13 00:00:00.0000, -3.282036952253649E+08, 3.751592432395724E+08, 8.143483893216282E+06,
2461456.500000000, A.D. 2027-Feb-20 00:00:00.0000, -3.345679414700076E+08, 3.680349548640576E+08, 8.541882875267118E+06,
2461463.500000000, A.D. 2027-Feb-27 00:00:00.0000, -3.408005912841095E+08, 3.607656591843643E+08, 8.936916544778273E+06,
2461470.500000000, A.D. 2027-Mar-06 00:00:00.0000, -3.468983029553465E+08, 3.533532922018921E+08, 9.328405785908490E+06,
2461477.500000000, A.D. 2027-Mar-13 00:00:00.0000, -3.528577372147371E+08, 3.457998642207397E+08, 9.716170309079781E+06,
2461484.500000000, A.D. 2027-Mar-20 00:00:00.0000, -3.586755581204634E+08, 3.381074615080511E+08, 1.010002866839609E+07,
2461491.500000000, A.D. 2027-Mar-27 00:00:00.0000, -3.643484343156006E+08, 3.302782479217616E+08, 1.047979830507374E+07,
2461498.500000000, A.D. 2027-Apr-03 00:00:00.0000, -3.698730404595159E+08, 3.223144664556326E+08, 1.085529559445837E+07,
2461505.500000000, A.D. 2027-Apr-10 00:00:00.0000, -3.752460587745181E+08, 3.142184407219563E+08, 1.122633589300601E+07,
2461512.500000000, A.D. 2027-Apr-17 00:00:00.0000, -3.804641806885543E+08, 3.059925763547484E+08, 1.159273358215754E+07,
2461519.500000000, A.D. 2027-Apr-24 00:00:00.0000, -3.855241084975806E+08, 2.976393622681631E+08, 1.195430209690416E+07,
2461526.500000000, A.D. 2027-May-01 00:00:00.0000, -3.904225567507201E+08, 2.891613717945237E+08, 1.231085391400334E+07,
2461533.500000000, A.D. 2027-May-08 00:00:00.0000, -3.951562530535855E+08, 2.805612644465142E+08, 1.266220053299707E+07,
2461540.500000000, A.D. 2027-May-15 00:00:00.0000, -3.997219397900763E+08, 2.718417892530061E+08, 1.300815266540323E+07,
2461547.500000000, A.D. 2027-May-22 00:00:00.0000, -4.041163783303390E+08, 2.630057870739012E+08, 1.334852056385660E+07,
2461554.500000000, A.D. 2027-May-29 00:00:00.0000, -4.083363523704956E+08, 2.540561904222611E+08, 1.368311406369509E+07,
2461561.500000000, A.D. 2027-Jun-05 00:00:00.0000, -4.123786695202267E+08, 2.449960239193590E+08, 1.401174251214430E+07,
2461568.500000000, A.D. 2027-Jun-12 00:00:00.0000, -4.162401631492419E+08, 2.358284058086949E+08, 1.433421480475748E+07,
2461575.500000000, A.D. 2027-Jun-19 00:00:00.0000, -4.199176948270725E+08, 2.265565495895607E+08, 1.465033948332311E+07,
2461582.500000000, A.D. 2027-Jun-26 00:00:00.0000, -4.234081570788504E+08, 2.171837655038417E+08, 1.495992484862253E+07,
2461589.500000000, A.D. 2027-Jul-03 00:00:00.0000, -4.267084763266652E+08, 2.077134618784477E+08, 1.526277907701595E+07,
2461596.500000000, A.D. 2027-Jul-10 00:00:00.0000, -4.298156159814193E+08, 1.981491463257241E+08, 1.555871033862118E+07,
2461603.500000000, A.D. 2027-Jul-17 00:00:00.0000, -4.327265796505502E+08, 1.884944267563036E+08, 1.584752691101674E+07,
2461610.500000000, A.D. 2027-Jul-24 00:00:00.0000, -4.354384143067430E+08, 1.787530121346318E+08, 1.612903726942328E+07,
2461617.500000000, A.D. 2027-Jul-31 00:00:00.0000, -4.379482130074443E+08, 1.689287132053823E+08, 1.640305013529226E+07,
2461624.500000000, A.D. 2027-Aug-07 00:00:00.0000, -4.402531173668819E+08, 1.590254443347273E+08, 1.666937459618744E+07,
2461631.500000000, A.D. 2027-Aug-14 00:00:00.0000, -4.423503220831836E+08, 1.490472262052731E+08, 1.692782048754860E+07,
2461638.500000000, A.D. 2027-Aug-21 00:00:00.0000, -4.442370809036560E+08, 1.389981859937052E+08, 1.717819870487916E+07,
2461645.500000000, A.D. 2027-Aug-28 00:00:00.0000, -4.459107105945904E+08, 1.288825562272383E+08, 1.742032123021144E+07,
2461652.500000000, A.D. 2027-Sep-04 00:00:00.0000, -4.473685940922160E+08, 1.187046748107909E+08, 1.765400118571336E+07,
2461659.500000000, A.D. 2027-Sep-11 00:00:00.0000, -4.486081842280113E+08, 1.084689855518501E+08, 1.787905298818414E+07,
2461666.500000000, A.D. 2027-Sep-18 00:00:00.0000, -4.496270078943855E+08, 9.818003852182867E+07, 1.809529253889058E+07,
2461673.500000000, A.D. 2027-Sep-25 00:00:00.0000, -4.504226704210374E+08, 8.784249016570310E+07, 1.830253742125122E+07,
2461680.500000000, A.D. 2027-Oct-02 00:00:00.0000, -4.509928600859203E+08, 7.746110317741103E+07, 1.850060710157666E+07,
2461687.500000000, A.D. 2027-Oct-09 00:00:00.0000, -4.513353527364799E+08, 6.704074612699500E+07, 1.868932313026609E+07,
2461694.500000000, A.D. 2027-Oct-16 00:00:00.0000, -4.514480164546317E+08, 5.658639277520977E+07, 1.886850933300364E+07,
2461701.500000000, A.D. 2027-Oct-23 00:00:00.0000, -4.513288160006505E+08, 4.610312106009274E+07, 1.903799196747582E+07,
2461708.500000000, A.D. 2027-Oct-30 00:00:00.0000, -4.509758166548858E+08, 3.559611235535046E+07, 1.919759986094270E+07,
2461715.500000000, A.D. 2027-Nov-06 00:00:00.0000, -4.503871886134688E+08, 2.507065211734759E+07, 1.934716472735010E+07,
2461722.500000000, A.D. 2027-Nov-13 00:00:00.0000, -4.495612139168186E+08, 1.453212983258358E+07, 1.948652167615513E+07,
2461729.500000000, A.D. 2027-Nov-20 00:00:00.0000, -4.484962930026885E+08, 3.986036069072778E+06, 1.961550946795213E+07,
2461736.500000000, A.D. 2027-Nov-27 00:00:00.0000, -4.471909492562475E+08, -6.562040413767788E+06, 1.973397061076457E+07,
2461743.500000000, A.D. 2027-Dec-04 00:00:00.0000, -4.456438335685771E+08, -1.710641459433949E+07, 1.984175155705208E+07,
2461750.500000000, A.D. 2027-Dec-11 00:00:00.0000, -4.438537294433619E+08, -2.764130713335782E+07, 1.993870297279356E+07,
2461757.500000000, A.D. 2027-Dec-18 00:00:00.0000, -4.418195583662235E+08, -3.816084668357645E+07, 2.002468002542185E+07,
2461764.500000000, A.D. 2027-Dec-25 00:00:00.0000, -4.395403852724233E+08, -4.865907257670502E+07, 2.009954267622948E+07,
2461771.500000000, A.D. 2028-Jan-01 00:00:00.0000, -4.370154240575281E+08, -5.912993788241173E+07, 2.016315597433088E+07,
$$EOE